start=new Date('2022-03-20T00:00:00.000Z').valueOf();
sats=[{"RA_OF_ASC_NODE":"210.6737","REV_AT_EPOCH":"8079","INCLINATION":"53.0536","MEAN_MOTION_DOT":"-0.00000531","ARG_OF_PERICENTER":"58.6508","PERIAPSIS":"546.085","EPOCH":"2022-03-19T15:05:44.025792","MEAN_ANOMALY":"301.4640","GP_ID":"199186281","OBJECT_ID":"2020-070M","SEMIMAJOR_AXIS":"6925.345","LAUNCH_DATE":"2020-10-06","MEAN_MOTION":"15.06401119","ELEMENT_SET_NO":"999","APOAPSIS":"548.335","MEAN_ELEMENT_THEORY":"SGP4","TLE_LINE2":"2 46543  53.0536 210.6737 0001624  58.6508 301.4640 15.06401119 80797","NORAD_CAT_ID":"46543","TLE_LINE1":"1 46543U 20070M   22078.62898178 -.00000531  00000-0 -16778-4 0  9993","REF_FRAME":"TEME","ECCENTRICITY":"0.00016240","EPHEMERIS_TYPE":"0","SITE":"AFETR","TIME_SYSTEM":"UTC","CENTER_NAME":"EARTH","BSTAR":"-0.00001677800000","FILE":"3366144","OBJECT_TYPE":"PAYLOAD","RCS_SIZE":"LARGE","CLASSIFICATION_TYPE":"U","OBJECT_NAME":"STARLINK-1693","DECAY_DATE":null,"MEAN_MOTION_DDOT":"0.0000000000000","COUNTRY_CODE":"US","PERIOD":"95.592"},{"PERIOD":"95.591","CLASSIFICATION_TYPE":"U","OBJECT_NAME":"STARLINK-1694","COUNTRY_CODE":"US","DECAY_DATE":null,"MEAN_MOTION_DDOT":"0.0000000000000","OBJECT_TYPE":"PAYLOAD","FILE":"3366144","RCS_SIZE":"LARGE","BSTAR":"0.00012725000000","CENTER_NAME":"EARTH","TIME_SYSTEM":"UTC","SITE":"AFETR","EPHEMERIS_TYPE":"0","ECCENTRICITY":"0.00015280","REF_FRAME":"TEME","NORAD_CAT_ID":"46544","TLE_LINE1":"1 46544U 20070N   22078.82388239  .00001615  00000-0  12725-3 0  9997","MEAN_ELEMENT_THEORY":"SGP4","TLE_LINE2":"2 46544  53.0544 194.8125 0001528  62.5511 297.5633 15.06412267 81033","LAUNCH_DATE":"2020-10-06","MEAN_MOTION":"15.06412267","ELEMENT_SET_NO":"999","APOAPSIS":"548.234","SEMIMAJOR_AXIS":"6925.311","OBJECT_ID":"2020-070N","GP_ID":"199184753","MEAN_ANOMALY":"297.5633","ARG_OF_PERICENTER":"62.5511","EPOCH":"2022-03-19T19:46:23.438496","PERIAPSIS":"546.118","MEAN_MOTION_DOT":"0.00001615","INCLINATION":"53.0544","REV_AT_EPOCH":"8103","RA_OF_ASC_NODE":"194.8125"},{"GP_ID":"199185280","SEMIMAJOR_AXIS":"6925.348","OBJECT_ID":"2020-070P","RA_OF_ASC_NODE":"210.2339","INCLINATION":"53.0555","REV_AT_EPOCH":"8080","ARG_OF_PERICENTER":"77.6074","PERIAPSIS":"546.218","EPOCH":"2022-03-19T17:34:20.233632","MEAN_MOTION_DOT":"0.00000384","MEAN_ANOMALY":"282.5076","CENTER_NAME":"EARTH","TIME_SYSTEM":"UTC","BSTAR":"0.00004470600000","FILE":"3366144","RCS_SIZE":"LARGE","OBJECT_TYPE":"PAYLOAD","PERIOD":"95.592","OBJECT_NAME":"STARLINK-1696","CLASSIFICATION_TYPE":"U","DECAY_DATE":null,"COUNTRY_CODE":"US","MEAN_MOTION_DDOT":"0.0000000000000","MEAN_ELEMENT_THEORY":"SGP4","TLE_LINE2":"2 46545  53.0555 210.2339 0001436  77.6074 282.5076 15.06400220 80800","MEAN_MOTION":"15.06400220","LAUNCH_DATE":"2020-10-06","APOAPSIS":"548.207","ELEMENT_SET_NO":"999","NORAD_CAT_ID":"46545","TLE_LINE1":"1 46545U 20070P   22078.73217863  .00000384  00000-0  44706-4 0  9999","ECCENTRICITY":"0.00014360","REF_FRAME":"TEME","SITE":"AFETR","EPHEMERIS_TYPE":"0"},{"GP_ID":"199185530","OBJECT_ID":"2020-070Q","SEMIMAJOR_AXIS":"6925.312","MEAN_MOTION_DOT":"0.00002970","EPOCH":"2022-03-19T15:37:34.328928","PERIAPSIS":"546.143","ARG_OF_PERICENTER":"59.0713","MEAN_ANOMALY":"301.0423","RA_OF_ASC_NODE":"210.5765","REV_AT_EPOCH":"8079","INCLINATION":"53.0540","FILE":"3366144","RCS_SIZE":"LARGE","OBJECT_TYPE":"PAYLOAD","DECAY_DATE":null,"COUNTRY_CODE":"US","MEAN_MOTION_DDOT":"0.0000000000000","CLASSIFICATION_TYPE":"U","OBJECT_NAME":"STARLINK-1697","PERIOD":"95.591","TIME_SYSTEM":"UTC","CENTER_NAME":"EARTH","BSTAR":"0.00021816000000","REF_FRAME":"TEME","ECCENTRICITY":"0.00014940","EPHEMERIS_TYPE":"0","SITE":"AFETR","ELEMENT_SET_NO":"999","APOAPSIS":"548.212","LAUNCH_DATE":"2020-10-06","MEAN_MOTION":"15.06411771","MEAN_ELEMENT_THEORY":"SGP4","TLE_LINE2":"2 46546  53.0540 210.5765 0001494  59.0713 301.0423 15.06411771 80793","TLE_LINE1":"1 46546U 20070Q   22078.65109177  .00002970  00000-0  21816-3 0  9998","NORAD_CAT_ID":"46546"},{"NORAD_CAT_ID":"46547","TLE_LINE1":"1 46547U 20070R   22078.81327463 -.00000053  00000-0  15336-4 0  9999","MEAN_ELEMENT_THEORY":"SGP4","TLE_LINE2":"2 46547  53.0537 209.8531 0001543  67.0211 293.0941 15.06403184 80827","LAUNCH_DATE":"2020-10-06","MEAN_MOTION":"15.06403184","ELEMENT_SET_NO":"999","APOAPSIS":"548.272","SITE":"AFETR","EPHEMERIS_TYPE":"0","ECCENTRICITY":"0.00015430","REF_FRAME":"TEME","BSTAR":"0.00001533600000","CENTER_NAME":"EARTH","TIME_SYSTEM":"UTC","PERIOD":"95.592","CLASSIFICATION_TYPE":"U","OBJECT_NAME":"STARLINK-1698","DECAY_DATE":null,"MEAN_MOTION_DDOT":"0.0000000000000","COUNTRY_CODE":"US","RCS_SIZE":"LARGE","FILE":"3366144","OBJECT_TYPE":"PAYLOAD","INCLINATION":"53.0537","REV_AT_EPOCH":"8082","RA_OF_ASC_NODE":"209.8531","MEAN_ANOMALY":"293.0941","ARG_OF_PERICENTER":"67.0211","PERIAPSIS":"546.135","EPOCH":"2022-03-19T19:31:06.928032","MEAN_MOTION_DOT":"-0.00000053","SEMIMAJOR_AXIS":"6925.339","OBJECT_ID":"2020-070R","GP_ID":"199185781"},{"MEAN_MOTION":"15.06395150","LAUNCH_DATE":"2020-10-06","ELEMENT_SET_NO":"999","APOAPSIS":"548.161","MEAN_ELEMENT_THEORY":"SGP4","TLE_LINE2":"2 46548  53.0538 210.7037 0001346  74.4010 285.7127 15.06395150 80817","NORAD_CAT_ID":"46548","TLE_LINE1":"1 46548U 20070S   22078.62530047  .00001090  00000-0  92047-4 0  9998","REF_FRAME":"TEME","ECCENTRICITY":"0.00013460","EPHEMERIS_TYPE":"0","SITE":"AFETR","TIME_SYSTEM":"UTC","CENTER_NAME":"EARTH","BSTAR":"0.00009204700000","FILE":"3365625","RCS_SIZE":"LARGE","OBJECT_TYPE":"PAYLOAD","CLASSIFICATION_TYPE":"U","OBJECT_NAME":"STARLINK-1699","MEAN_MOTION_DDOT":"0.0000000000000","DECAY_DATE":null,"COUNTRY_CODE":"US","PERIOD":"95.592","RA_OF_ASC_NODE":"210.7037","REV_AT_EPOCH":"8081","INCLINATION":"53.0538","MEAN_MOTION_DOT":"0.00001090","ARG_OF_PERICENTER":"74.4010","PERIAPSIS":"546.296","EPOCH":"2022-03-19T15:00:25.960608","MEAN_ANOMALY":"285.7127","GP_ID":"199126199","OBJECT_ID":"2020-070S","SEMIMAJOR_AXIS":"6925.363"},{"ARG_OF_PERICENTER":"65.6619","PERIAPSIS":"546.384","EPOCH":"2022-03-19T18:53:57.311232","MEAN_MOTION_DOT":"0.00005288","MEAN_ANOMALY":"294.4489","RA_OF_ASC_NODE":"209.9617","INCLINATION":"53.0528","REV_AT_EPOCH":"8081","GP_ID":"199184780","SEMIMAJOR_AXIS":"6925.310","OBJECT_ID":"2020-070T","ECCENTRICITY":"0.00011420","REF_FRAME":"TEME","SITE":"AFETR","EPHEMERIS_TYPE":"0","MEAN_ELEMENT_THEORY":"SGP4","TLE_LINE2":"2 46549  53.0528 209.9617 0001142  65.6619 294.4489 15.06412554 80818","LAUNCH_DATE":"2020-10-06","MEAN_MOTION":"15.06412554","APOAPSIS":"547.966","ELEMENT_SET_NO":"999","NORAD_CAT_ID":"46549","TLE_LINE1":"1 46549U 20070T   22078.78746888  .00005288  00000-0  37347-3 0  9992","FILE":"3366144","OBJECT_TYPE":"PAYLOAD","RCS_SIZE":"LARGE","PERIOD":"95.591","OBJECT_NAME":"STARLINK-1700","CLASSIFICATION_TYPE":"U","MEAN_MOTION_DDOT":"0.0000000000000","DECAY_DATE":null,"COUNTRY_CODE":"US","CENTER_NAME":"EARTH","TIME_SYSTEM":"UTC","BSTAR":"0.00037347000000"},{"RA_OF_ASC_NODE":"210.6345","INCLINATION":"53.0544","REV_AT_EPOCH":"8079","PERIAPSIS":"546.273","EPOCH":"2022-03-19T15:21:38.895264","ARG_OF_PERICENTER":"61.0944","MEAN_MOTION_DOT":"-0.00000101","MEAN_ANOMALY":"299.0179","GP_ID":"199185030","SEMIMAJOR_AXIS":"6925.336","OBJECT_ID":"2020-070U","MEAN_ELEMENT_THEORY":"SGP4","TLE_LINE2":"2 46550  53.0544 210.6345 0001340  61.0944 299.0179 15.06404099 80795","APOAPSIS":"548.129","ELEMENT_SET_NO":"999","MEAN_MOTION":"15.06404099","LAUNCH_DATE":"2020-10-06","TLE_LINE1":"1 46550U 20070U   22078.64003351 -.00000101  00000-0  12137-4 0  9991","NORAD_CAT_ID":"46550","ECCENTRICITY":"0.00013400","REF_FRAME":"TEME","SITE":"AFETR","EPHEMERIS_TYPE":"0","CENTER_NAME":"EARTH","TIME_SYSTEM":"UTC","BSTAR":"0.00001213700000","OBJECT_TYPE":"PAYLOAD","FILE":"3366144","RCS_SIZE":"LARGE","PERIOD":"95.592","DECAY_DATE":null,"COUNTRY_CODE":"US","MEAN_MOTION_DDOT":"0.0000000000000","OBJECT_NAME":"STARLINK-1701","CLASSIFICATION_TYPE":"U"},{"GP_ID":"199186282","SEMIMAJOR_AXIS":"6925.319","OBJECT_ID":"2020-070W","ARG_OF_PERICENTER":"79.3378","EPOCH":"2022-03-19T19:09:12.852288","PERIAPSIS":"546.168","MEAN_MOTION_DOT":"0.00000960","MEAN_ANOMALY":"280.7776","RA_OF_ASC_NODE":"194.9138","INCLINATION":"53.0548","REV_AT_EPOCH":"8103","RCS_SIZE":"LARGE","FILE":"3366144","OBJECT_TYPE":"PAYLOAD","PERIOD":"95.592","OBJECT_NAME":"STARLINK-1649","CLASSIFICATION_TYPE":"U","DECAY_DATE":null,"COUNTRY_CODE":"US","MEAN_MOTION_DDOT":"0.0000000000000","CENTER_NAME":"EARTH","TIME_SYSTEM":"UTC","BSTAR":"0.00008334800000","ECCENTRICITY":"0.00014680","REF_FRAME":"TEME","SITE":"AFETR","EPHEMERIS_TYPE":"0","MEAN_ELEMENT_THEORY":"SGP4","TLE_LINE2":"2 46552  53.0548 194.9138 0001468  79.3378 280.7776 15.06409506 81035","MEAN_MOTION":"15.06409506","LAUNCH_DATE":"2020-10-06","ELEMENT_SET_NO":"999","APOAPSIS":"548.201","NORAD_CAT_ID":"46552","TLE_LINE1":"1 46552U 20070W   22078.79806542  .00000960  00000-0  83348-4 0  9996"},{"MEAN_MOTION_DDOT":"0.0000000000000","DECAY_DATE":null,"COUNTRY_CODE":"US","CLASSIFICATION_TYPE":"U","OBJECT_NAME":"STARLINK-1664","PERIOD":"95.592","RCS_SIZE":"LARGE","FILE":"3366144","OBJECT_TYPE":"PAYLOAD","BSTAR":"0.00004307300000","TIME_SYSTEM":"UTC","CENTER_NAME":"EARTH","EPHEMERIS_TYPE":"0","SITE":"AFETR","REF_FRAME":"TEME","ECCENTRICITY":"0.00014820","TLE_LINE1":"1 46553U 20070X   22078.75980944  .00000360  00000-0  43073-4 0  9997","NORAD_CAT_ID":"46553","APOAPSIS":"548.235","ELEMENT_SET_NO":"999","MEAN_MOTION":"15.06401730","LAUNCH_DATE":"2020-10-06","MEAN_ELEMENT_THEORY":"SGP4","TLE_LINE2":"2 46553  53.0537 180.0971 0001482  68.8522 291.2625 15.06401730 81238","OBJECT_ID":"2020-070X","SEMIMAJOR_AXIS":"6925.343","GP_ID":"199184754","MEAN_ANOMALY":"291.2625","MEAN_MOTION_DOT":"0.00000360","PERIAPSIS":"546.182","EPOCH":"2022-03-19T18:14:07.535616","ARG_OF_PERICENTER":"68.8522","REV_AT_EPOCH":"8123","INCLINATION":"53.0537","RA_OF_ASC_NODE":"180.0971"}];
